{
  "type": "Feature",
  "properties": {
    "slug": "central-greece",
    "name": "Средняя Греция и Фессалия",
    "centerLat": 38.8,
    "centerLng": 22.4,
    "verify": "Упрощённый условный полигон: Аттика, Беотия, Фессалия."
  },
  "geometry": {
    "type": "Polygon",
    "coordinates": [
      [
        [20.8, 39.5],
        [21.3, 40.0],
        [22.6, 40.2],
        [23.0, 39.3],
        [23.9, 38.5],
        [24.1, 37.7],
        [23.4, 37.9],
        [22.9, 38.1],
        [21.6, 38.3],
        [21.1, 38.6],
        [20.8, 39.5]
      ]
    ]
  }
}
