{
  "type": "Feature",
  "properties": {
    "slug": "nile-valley",
    "name": "Долина Нила (Верхний Египет)",
    "centerLat": 27.0,
    "centerLng": 31.8,
    "verify": "Упрощённый условный полигон вдоль Нила от Асуана до Мемфиса."
  },
  "geometry": {
    "type": "Polygon",
    "coordinates": [
      [
        [31.0, 30.0],
        [31.6, 30.0],
        [32.2, 28.0],
        [33.1, 26.0],
        [33.2, 24.0],
        [32.6, 24.0],
        [32.3, 26.0],
        [31.0, 27.5],
        [30.6, 29.0],
        [31.0, 30.0]
      ]
    ]
  }
}
