{
  "type": "Feature",
  "properties": {
    "slug": "peloponnese",
    "name": "Пелопоннес",
    "centerLat": 37.4,
    "centerLng": 22.3,
    "verify": "Упрощённый условный полигон полуострова Пелопоннес."
  },
  "geometry": {
    "type": "Polygon",
    "coordinates": [
      [
        [21.1, 37.9],
        [21.6, 38.2],
        [22.9, 37.95],
        [23.2, 37.5],
        [23.0, 36.5],
        [22.5, 36.4],
        [22.1, 36.8],
        [21.7, 36.8],
        [21.6, 37.4],
        [21.1, 37.9]
      ]
    ]
  }
}
